NORAD_CAT_ID,OBJECT_NAME,OBJECT_TYPE,EPOCH,MEAN_MOTION,ECCENTRICITY,INCLINATION,RA_OF_ASC_NODE,ARG_OF_PERICENTER,MEAN_ANOMALY,BSTAR,MEAN_MOTION_DOT,MEAN_MOTION_DDOT,TLE_LINE0,TLE_LINE1,TLE_LINE2,SEMIMAJOR_AXIS,PERIOD,APOGEE,PERIGEE,DECAYED
52534.0,STARLINK-3952,PAYLOAD,2023-04-22 21:18:14,15.08843621,0.0001234,53.2147,170.8429,85.852,274.2613,0.00015182,2.129e-05,0.0,0 STARLINK-3952,1 52534U 22051B   23112.88766882  .00002129  00000-0  15182-3 0  9995,2 52534  53.2147 170.8429 0001234  85.8520 274.2613 15.08843621 52721,6917.869,95.437,540.588,538.881,0.0
52534.0,STARLINK-3952,PAYLOAD,2023-04-23 13:12:06,15.08835989,0.0001219,53.214,167.8673,98.689,261.424,2.1226e-05,5e-07,0.0,0 STARLINK-3952,1 52534U 22051B   23113.55007350  .00000050  00000-0  21226-4 0  9996,2 52534  53.2140 167.8673 0001219  98.6890 261.4240 15.08835989 52829,6917.893,95.438,540.601,538.914,0.0
52534.0,STARLINK-3952,PAYLOAD,2023-04-24 03:30:33,15.08868714,0.0001288,53.2149,165.1922,94.7443,265.3696,0.00052265,8.046e-05,0.0,0 STARLINK-3952,1 52534U 22051B   23114.14622273  .00008046  00000-0  52265-3 0  9998,2 52534  53.2149 165.1922 0001288  94.7443 265.3696 15.08868714 52913,6917.793,95.436,540.549,538.767,0.0
52534.0,STARLINK-3952,PAYLOAD,2023-04-24 11:27:28,15.08886223,0.0001403,53.2148,163.7041,100.7146,259.4004,0.00099867,0.00015662,0.0,0 STARLINK-3952,1 52534U 22051B   23114.47741590  .00015662  00000-0  99867-3 0  9999,2 52534  53.2148 163.7041 0001403 100.7146 259.4004 15.08886223 53637,6917.739,95.435,540.575,538.634,0.0
52534.0,STARLINK-3952,PAYLOAD,2023-04-25 09:42:54,15.08826215,9.79e-05,53.2152,159.5435,101.1581,258.9521,-0.0002108,-3.64e-05,0.0,0 STARLINK-3952,1 52534U 22051B   23115.40479626 -.00003640  00000-0 -21080-3 0  9998,2 52534  53.2152 159.5435 0000979 101.1581 258.9521 15.08826215 53102,6917.923,95.438,540.465,539.11,0.0
52534.0,STARLINK-3952,PAYLOAD,2023-04-25 12:53:40,15.08822755,9.53e-05,53.2151,158.9503,90.1107,269.9994,-0.00026357,-4.478e-05,0.0,0 STARLINK-3952,1 52534U 22051B   23115.53727892 -.00004478  00000-0 -26357-3 0  9995,2 52534  53.2151 158.9503 0000953  90.1107 269.9994 15.08822755 53799,6917.933,95.439,540.457,539.139,0.0
52534.0,STARLINK-3952,PAYLOAD,2023-04-26 07:58:19,15.08828719,0.0001063,53.2155,155.382,85.3235,274.7879,-0.00020939,-3.618e-05,0.0,0 STARLINK-3952,1 52534U 22051B   23116.33216694 -.00003618  00000-0 -20939-3 0  9992,2 52534  53.2155 155.3820 0001063  85.3235 274.7879 15.08828719 53913,6917.915,95.438,540.515,539.044,0.0
52534.0,STARLINK-3952,PAYLOAD,2023-04-26 19:05:59,15.0885906,0.000128,53.2158,153.2984,102.8379,257.2756,-0.00030133,-5.083e-05,0.0,0 STARLINK-3952,1 52534U 22051B   23116.79583107 -.00005083  00000-0 -30133-3 0  9993,2 52534  53.2158 153.2984 0001280 102.8379 257.2756 15.08859060 53989,6917.822,95.436,540.573,538.802,0.0
52534.0,STARLINK-3952,PAYLOAD,2023-04-27 03:02:56,15.08842892,0.0001324,53.216,151.8118,116.1581,243.9547,0.00056763,8.758e-05,0.0,0 STARLINK-3952,1 52534U 22051B   23117.12704419  .00008758  00000-0  56763-3 0  9999,2 52534  53.2160 151.8118 0001324 116.1581 243.9547 15.08842892 53364,6917.872,95.437,540.652,538.821,0.0
52534.0,STARLINK-3952,PAYLOAD,2023-04-27 12:35:14,15.08868371,0.0001317,53.2157,150.0272,109.0301,251.0834,0.00080678,0.00012585,0.0,0 STARLINK-3952,1 52534U 22051B   23117.52447812  .00012585  00000-0  80678-3 0  9999,2 52534  53.2157 150.0272 0001317 109.0301 251.0834 15.08868371 54095,6917.794,95.436,540.57,538.748,0.0
52534.0,STARLINK-3952,PAYLOAD,2023-04-28 06:04:28,15.08860411,0.0002105,53.2155,146.7506,128.6483,231.4698,0.00018018,2.582e-05,0.0,0 STARLINK-3952,1 52534U 22051B   23118.25311050  .00002582  00000-0  18018-3 0  9999,2 52534  53.2155 146.7506 0002105 128.6483 231.4698 15.08860411 53534,6917.818,95.436,541.139,538.227,0.0
52534.0,STARLINK-3952,PAYLOAD,2023-04-28 09:15:15,15.08852538,0.0001344,53.2157,146.1589,106.759,253.355,3.3478e-05,2.45e-06,0.0,0 STARLINK-3952,1 52534U 22051B   23118.38559287  .00000245  00000-0  33478-4 0  9991,2 52534  53.2157 146.1589 0001344 106.7590 253.3550 15.08852538 54229,6917.842,95.437,540.637,538.777,0.0
52534.0,STARLINK-3952,PAYLOAD,2023-04-29 01:09:06,15.08843437,0.0001376,53.216,143.1878,87.6437,272.4712,-0.0001038,-1.94e-05,0.0,0 STARLINK-3952,1 52534U 22051B   23119.04799528 -.00001940  00000-0 -10380-3 0  9990,2 52534  53.2160 143.1878 0001376  87.6437 272.4712 15.08843437 53659,6917.87,95.437,540.687,538.783,0.0
52534.0,STARLINK-3952,PAYLOAD,2023-04-29 10:41:25,15.08844926,0.0001333,53.2161,141.4016,95.4287,264.6857,-5.7966e-05,-1.21e-05,0.0,0 STARLINK-3952,1 52534U 22051B   23119.44543966 -.00001210  00000-0 -57966-4 0  9999,2 52534  53.2161 141.4016 0001333  95.4287 264.6857 15.08844926 54386,6917.865,95.437,540.652,538.808,0.0
52534.0,STARLINK-3952,PAYLOAD,2023-04-30 07:21:26,15.08844193,0.0001372,53.2163,137.5373,81.1385,278.9762,6.5086e-05,7.48e-06,0.0,0 STARLINK-3952,1 52534U 22051B   23120.30655474  .00000748  00000-0  65086-4 0  9999,2 52534  53.2163 137.5373 0001372  81.1385 278.9762 15.08844193 53843,6917.868,95.437,540.682,538.783,0.0
52534.0,STARLINK-3952,PAYLOAD,2023-05-01 05:36:50,15.0883317,0.0001285,53.2157,133.3738,86.56,273.554,2.5525e-05,1.18e-06,0.0,0 STARLINK-3952,1 52534U 22051B   23121.23392358  .00000118  00000-0  25525-4 0  9996,2 52534  53.2157 133.3738 0001285  86.5600 273.5540 15.08833170 53980,6917.901,95.438,540.655,538.877,0.0
52534.0,STARLINK-3952,PAYLOAD,2023-05-01 10:23:00,15.08833873,0.0001285,53.2157,132.4817,86.7285,273.3854,2.718e-05,1.45e-06,0.0,0 STARLINK-3952,1 52534U 22051B   23121.43264364  .00000145  00000-0  27180-4 0  9992,2 52534  53.2157 132.4817 0001285  86.7285 273.3854 15.08833873 54683,6917.899,95.438,540.653,538.875,0.0
52534.0,STARLINK-3952,PAYLOAD,2023-05-02 07:03:00,15.0884221,0.0001326,53.2158,128.6168,78.8685,281.2456,5.8897e-05,6.5e-06,0.0,0 STARLINK-3952,1 52534U 22051B   23122.29375877  .00000650  00000-0  58897-4 0  9999,2 52534  53.2158 128.6168 0001326  78.8685 281.2456 15.08842210 54144,6917.874,95.437,540.656,538.821,0.0
52534.0,STARLINK-3952,PAYLOAD,2023-05-02 10:13:46,15.08843714,0.0001317,53.2156,128.0217,79.7514,280.3627,6.758e-05,7.88e-06,0.0,0 STARLINK-3952,1 52534U 22051B   23122.42623729  .00000788  00000-0  67580-4 0  9997,2 52534  53.2156 128.0217 0001317  79.7514 280.3627 15.08843714 54838,6917.869,95.437,540.645,538.823,0.0
52534.0,STARLINK-3952,PAYLOAD,2023-05-03 10:04:33,15.08841792,0.0001295,53.2161,123.5606,83.0396,277.0744,0.00012916,1.768e-05,0.0,0 STARLINK-3952,1 52534U 22051B   23123.41983741  .00001768  00000-0  12916-3 0  9991,2 52534  53.2161 123.5606 0001295  83.0396 277.0744 15.08841792 54317,6917.875,95.437,540.636,538.844,0.0
52534.0,STARLINK-3952,PAYLOAD,2023-05-03 19:36:53,15.0883693,0.000132,53.2159,121.7759,82.03,278.0842,3.5046e-05,2.7e-06,0.0,0 STARLINK-3952,1 52534U 22051B   23123.81728297  .00000270  00000-0  35046-4 0  9995,2 52534  53.2159 121.7759 0001320  82.0300 278.0842 15.08836930 54370,6917.89,95.438,540.668,538.842,0.0
52534.0,STARLINK-3952,PAYLOAD,2023-05-04 06:44:35,15.08840363,0.0001282,53.216,119.6949,82.4483,277.6655,1.9733e-05,2.6e-07,0.0,0 STARLINK-3952,1 52534U 22051B   23124.28096123  .00000026  00000-0  19733-4 0  9997,2 52534  53.2160 119.6949 0001282  82.4483 277.6655 15.08840363 55117,6917.879,95.438,540.631,538.857,0.0
52534.0,STARLINK-3952,PAYLOAD,2023-05-04 22:38:26,15.08837007,0.0001263,53.2161,116.7215,82.6523,277.4613,-4.3507e-06,-3.57e-06,0.0,0 STARLINK-3952,1 52534U 22051B   23124.94336472 -.00000357  00000-0 -43507-5 0  9990,2 52534  53.2161 116.7215 0001263  82.6523 277.4613 15.08837007 54547,6917.89,95.438,540.628,538.881,0.0
52534.0,STARLINK-3952,PAYLOAD,2023-05-05 16:07:41,15.08840166,0.0001251,53.2165,113.4509,88.1707,271.9428,1.0262e-06,-2.72e-06,0.0,0 STARLINK-3952,1 52534U 22051B   23125.67200276 -.00000272  00000-0  10262-5 0  9990,2 52534  53.2165 113.4509 0001251  88.1707 271.9428 15.08840166 55323,6917.88,95.438,540.61,538.879,0.0
52534.0,STARLINK-3952,PAYLOAD,2023-05-06 06:26:09,15.08842261,0.0001232,53.2165,110.7746,90.9942,269.1192,0.00010099,1.32e-05,0.0,0 STARLINK-3952,1 52534U 22051B   23126.26816048  .00001320  00000-0  10099-3 0  9996,2 52534  53.2165 110.7746 0001232  90.9942 269.1192 15.08842261 54747,6917.873,95.437,540.591,538.886,0.0
52534.0,STARLINK-3952,PAYLOAD,2023-05-06 08:01:32,15.08843988,0.0001237,53.2161,110.4772,91.491,268.6224,0.00010609,1.401e-05,0.0,0 STARLINK-3952,1 52534U 22051B   23126.33439918  .00001401  00000-0  10609-3 0  9998,2 52534  53.2161 110.4772 0001237  91.4910 268.6224 15.08843988 55428,6917.868,95.437,540.589,538.877,0.0
52534.0,STARLINK-3952,PAYLOAD,2023-05-07 06:16:56,15.08843589,0.000123,53.2165,106.3135,85.6602,274.453,9.2963e-05,1.192e-05,0.0,0 STARLINK-3952,1 52534U 22051B   23127.26175998  .00001192  00000-0  92963-4 0  9997,2 52534  53.2165 106.3135 0001230  85.6602 274.4530 15.08843589 55562,6917.869,95.437,540.585,538.884,0.0
52534.0,STARLINK-3952,PAYLOAD,2023-05-07 15:49:15,15.08839044,0.0001227,53.2163,104.5295,91.1628,268.9505,4.672e-05,4.56e-06,0.0,0 STARLINK-3952,1 52534U 22051B   23127.65920387  .00000456  00000-0  46720-4 0  9992,2 52534  53.2163 104.5295 0001227  91.1628 268.9505 15.08839044 54956,6917.883,95.438,540.597,538.899,0.0
52534.0,STARLINK-3952,PAYLOAD,2023-05-08 18:50:48,15.08853654,9.66e-05,53.2166,99.4729,100.7802,259.3299,-0.00015372,-2.734e-05,0.0,0 STARLINK-3952,1 52534U 22051B   23128.78527848 -.00002734  00000-0 -15372-3 0  9993,2 52534  53.2166  99.4729 0000966 100.7802 259.3299 15.08853654 55793,6917.839,95.437,540.372,539.035,0.0
52534.0,STARLINK-3952,PAYLOAD,2023-05-09 04:23:07,15.0884349,0.0001235,53.2168,97.6894,94.9025,265.2108,7.4778e-05,9.03e-06,0.0,0 STARLINK-3952,1 52534U 22051B   23129.18272115  .00000903  00000-0  74778-4 0  9992,2 52534  53.2168  97.6894 0001235  94.9025 265.2108 15.08843490 55184,6917.87,95.437,540.589,538.88,0.0
